{
  "type": "FeatureCollection",
  "features": [
    {
      "type": "Feature",
      "properties": {
        "norad_id": 27954,
        "name": "GALAXY 13 (HORIZONS-1)",
        "group": "intelsat",
        "lat": 0.6449768104040963,
        "lon": -137.54533706331267,
        "alt_km": 35779.015110497065,
        "timestamp": "2025-12-20T18:51:31.385290+00:00",
        "meta_object_name": "GALAXY 13 (HORIZONS-1)",
        "meta_object_id": "2003-044A",
        "meta_epoch": "2025-12-20T12:30:57.714048",
        "meta_mean_motion": 1.00269807,
        "meta_eccentricity": 0.00023767,
        "meta_inclination": 0.9566,
        "meta_ra_of_asc_node": 86.372,
        "meta_arg_of_pericenter": 177.8371,
        "meta_mean_anomaly": 222.8683,
        "meta_ephemeris_type": 0,
        "meta_classification_type": "U",
        "meta_norad_cat_id": 27954,
        "meta_element_set_no": 999,
        "meta_rev_at_epoch": 4478,
        "meta_bstar": 0,
        "meta_mean_motion_dot": 1.56e-06,
        "meta_mean_motion_ddot": 0,
        "tle_line1": "1 27954U 03044A   25354.52150132  .00000156  00000+0  00000+0 0  9996",
        "tle_line2": "2 27954   0.9566  86.3720 0002376 177.8371 222.8683  1.00269807 44780"
      },
      "geometry": {
        "type": "Point",
        "coordinates": [
          -137.54533706331267,
          0.6449768104040963
        ]
      }
    },
    {
      "type": "Feature",
      "properties": {
        "norad_id": 28358,
        "name": "INTELSAT 10-02",
        "group": "intelsat",
        "lat": -0.012746498159857655,
        "lon": 11.529382108323942,
        "alt_km": 35785.14127656272,
        "timestamp": "2025-12-20T18:51:31.385302+00:00",
        "meta_object_name": "INTELSAT 10-02",
        "meta_object_id": "2004-022A",
        "meta_epoch": "2025-12-20T10:23:38.656320",
        "meta_mean_motion": 1.00270532,
        "meta_eccentricity": 8.903e-05,
        "meta_inclination": 0.0218,
        "meta_ra_of_asc_node": 71.4141,
        "meta_arg_of_pericenter": 230.3052,
        "meta_mean_anomaly": 302.4939,
        "meta_ephemeris_type": 0,
        "meta_classification_type": "U",
        "meta_norad_cat_id": 28358,
        "meta_element_set_no": 999,
        "meta_rev_at_epoch": 7876,
        "meta_bstar": 0,
        "meta_mean_motion_dot": 1.3e-07,
        "meta_mean_motion_ddot": 0,
        "tle_line1": "1 28358U 04022A   25354.43308630  .00000013  00000+0  00000+0 0  9992",
        "tle_line2": "2 28358   0.0218  71.4141 0000890 230.3052 302.4939  1.00270532 78767"
      },
      "geometry": {
        "type": "Point",
        "coordinates": [
          11.529382108323942,
          -0.012746498159857655
        ]
      }
    },
    {
      "type": "Feature",
      "properties": {
        "norad_id": 28626,
        "name": "XM-3 (RHYTHM)",
        "group": "intelsat",
        "lat": 0.049349253952014824,
        "lon": 88.56946299230438,
        "alt_km": 36160.55563603465,
        "timestamp": "2025-12-20T18:51:31.385314+00:00",
        "meta_object_name": "XM-3 (RHYTHM)",
        "meta_object_id": "2005-008A",
        "meta_epoch": "2025-12-20T13:35:51.499392",
        "meta_mean_motion": 0.98949934,
        "meta_eccentricity": 0.00019499,
        "meta_inclination": 0.1939,
        "meta_ra_of_asc_node": 81.9855,
        "meta_arg_of_pericenter": 278.0119,
        "meta_mean_anomaly": 10.4701,
        "meta_ephemeris_type": 0,
        "meta_classification_type": "U",
        "meta_norad_cat_id": 28626,
        "meta_element_set_no": 999,
        "meta_rev_at_epoch": 4082,
        "meta_bstar": 0,
        "meta_mean_motion_dot": 7.4e-07,
        "meta_mean_motion_ddot": 0,
        "tle_line1": "1 28626U 05008A   25354.56656828  .00000074  00000+0  00000+0 0  9991",
        "tle_line2": "2 28626   0.1939  81.9855 0001949 278.0119  10.4701  0.98949934 40827"
      },
      "geometry": {
        "type": "Point",
        "coordinates": [
          88.56946299230438,
          0.049349253952014824
        ]
      }
    },
    {
      "type": "Feature",
      "properties": {
        "norad_id": 28659,
        "name": "DIRECTV 8",
        "group": "intelsat",
        "lat": -0.04841780129254644,
        "lon": -106.57979360141411,
        "alt_km": 35775.618199432305,
        "timestamp": "2025-12-20T18:51:31.385326+00:00",
        "meta_object_name": "DIRECTV 8",
        "meta_object_id": "2005-019A",
        "meta_epoch": "2025-12-20T10:08:09.379392",
        "meta_mean_motion": 1.00270176,
        "meta_eccentricity": 0.00028828,
        "meta_inclination": 0.0251,
        "meta_ra_of_asc_node": 9.5951,
        "meta_arg_of_pericenter": 270.6825,
        "meta_mean_anomaly": 201.9689,
        "meta_ephemeris_type": 0,
        "meta_classification_type": "U",
        "meta_norad_cat_id": 28659,
        "meta_element_set_no": 999,
        "meta_rev_at_epoch": 7528,
        "meta_bstar": 0,
        "meta_mean_motion_dot": 0,
        "meta_mean_motion_ddot": 0,
        "tle_line1": "1 28659U 05019A   25354.42233078  .00000000  00000+0  00000+0 0  9991",
        "tle_line2": "2 28659   0.0251   9.5951 0002882 270.6825 201.9689  1.00270176 75280"
      },
      "geometry": {
        "type": "Point",
        "coordinates": [
          -106.57979360141411,
          -0.04841780129254644
        ]
      }
    },
    {
      "type": "Feature",
      "properties": {
        "norad_id": 28702,
        "name": "GALAXY 28 (G-28)",
        "group": "intelsat",
        "lat": -1.1188227664949033,
        "lon": -76.2136789081477,
        "alt_km": 35774.16853502319,
        "timestamp": "2025-12-20T18:51:31.385357+00:00",
        "meta_object_name": "GALAXY 28 (G-28)",
        "meta_object_id": "2005-022A",
        "meta_epoch": "2025-12-20T00:49:30.482112",
        "meta_mean_motion": 1.00271047,
        "meta_eccentricity": 0.00029384,
        "meta_inclination": 2.8382,
        "meta_ra_of_asc_node": 81.1982,
        "meta_arg_of_pericenter": 194.0723,
        "meta_mean_anomaly": 97.2981,
        "meta_ephemeris_type": 0,
        "meta_classification_type": "U",
        "meta_norad_cat_id": 28702,
        "meta_element_set_no": 999,
        "meta_rev_at_epoch": 5017,
        "meta_bstar": 0,
        "meta_mean_motion_dot": -1.65e-06,
        "meta_mean_motion_ddot": 0,
        "tle_line1": "1 28702U 05022A   25354.03438058 -.00000165  00000+0  00000+0 0  9999",
        "tle_line2": "2 28702   2.8382  81.1982 0002938 194.0723  97.2981  1.00271047 50172"
      },
      "geometry": {
        "type": "Point",
        "coordinates": [
          -76.2136789081477,
          -1.1188227664949033
        ]
      }
    },
    {
      "type": "Feature",
      "properties": {
        "norad_id": 29236,
        "name": "GALAXY 16 (G-16)",
        "group": "intelsat",
        "lat": 0.007337979319844918,
        "lon": -86.51710753090917,
        "alt_km": 35775.83417945818,
        "timestamp": "2025-12-20T18:51:31.385392+00:00",
        "meta_object_name": "GALAXY 16 (G-16)",
        "meta_object_id": "2006-023A",
        "meta_epoch": "2025-12-20T12:09:57.868128",
        "meta_mean_motion": 1.00271154,
        "meta_eccentricity": 0.0002466,
        "meta_inclination": 0.0202,
        "meta_ra_of_asc_node": 181.2175,
        "meta_arg_of_pericenter": 88.6621,
        "meta_mean_anomaly": 262.9469,
        "meta_ephemeris_type": 0,
        "meta_classification_type": "U",
        "meta_norad_cat_id": 29236,
        "meta_element_set_no": 999,
        "meta_rev_at_epoch": 7118,
        "meta_bstar": 0,
        "meta_mean_motion_dot": -1.03e-06,
        "meta_mean_motion_ddot": 0,
        "tle_line1": "1 29236U 06023A   25354.50691977 -.00000103  00000+0  00000+0 0  9999",
        "tle_line2": "2 29236   0.0202 181.2175 0002466  88.6621 262.9469  1.00271154 71188"
      },
      "geometry": {
        "type": "Point",
        "coordinates": [
          -86.51710753090917,
          0.007337979319844918
        ]
      }
    },
    {
      "type": "Feature",
      "properties": {
        "norad_id": 29494,
        "name": "DIRECTV 9S",
        "group": "intelsat",
        "lat": -0.30501803358564,
        "lon": -88.72829965364771,
        "alt_km": 35774.22607253382,
        "timestamp": "2025-12-20T18:51:31.385406+00:00",
        "meta_object_name": "DIRECTV 9S",
        "meta_object_id": "2006-043A",
        "meta_epoch": "2025-12-20T11:02:13.713216",
        "meta_mean_motion": 1.00271636,
        "meta_eccentricity": 0.00028256,
        "meta_inclination": 1.9589,
        "meta_ra_of_asc_node": 83.1325,
        "meta_arg_of_pericenter": 192.0935,
        "meta_mean_anomaly": 238.4139,
        "meta_ephemeris_type": 0,
        "meta_classification_type": "U",
        "meta_norad_cat_id": 29494,
        "meta_element_set_no": 999,
        "meta_rev_at_epoch": 4959,
        "meta_bstar": 0,
        "meta_mean_motion_dot": -9.1e-07,
        "meta_mean_motion_ddot": 0,
        "tle_line1": "1 29494U 06043A   25354.45988094 -.00000091  00000+0  00000+0 0  9996",
        "tle_line2": "2 29494   1.9589  83.1325 0002825 192.0935 238.4139  1.00271636 49593"
      },
      "geometry": {
        "type": "Point",
        "coordinates": [
          -88.72829965364771,
          -0.30501803358564
        ]
      }
    }
  ]
}